{
  "type": "FeatureCollection",
  "features": [
    {
      "type": "Feature",
      "properties": {
        "norad_id": 42917,
        "name": "QZS-3 (QZSS/PRN 199)",
        "group": "gnss",
        "lat": -0.00020636494275718336,
        "lon": 77.53719133776524,
        "alt_km": 35794.55271319148,
        "timestamp": "2025-12-18T14:52:08.268281+00:00",
        "meta_object_name": "QZS-3 (QZSS/PRN 199)",
        "meta_object_id": "2017-048A",
        "meta_epoch": "2025-12-18T05:48:38.666016",
        "meta_mean_motion": 1.00267122,
        "meta_eccentricity": 0.00017867,
        "meta_inclination": 0.025,
        "meta_ra_of_asc_node": 190.5394,
        "meta_arg_of_pericenter": 87.2177,
        "meta_mean_anomaly": 23.5457,
        "meta_ephemeris_type": 0,
        "meta_classification_type": "U",
        "meta_norad_cat_id": 42917,
        "meta_element_set_no": 999,
        "meta_rev_at_epoch": 3044,
        "meta_bstar": 0,
        "meta_mean_motion_dot": 0,
        "meta_mean_motion_ddot": 0,
        "tle_line1": "1 42917U 17048A   25352.24211419  .00000000  00000+0  00000+0 0  9992",
        "tle_line2": "2 42917   0.0250 190.5394 0001786  87.2177  23.5457  1.00267122 30445"
      },
      "geometry": {
        "type": "Point",
        "coordinates": [
          77.53719133776524,
          -0.00020636494275718336
        ]
      }
    },
    {
      "type": "Feature",
      "properties": {
        "norad_id": 42939,
        "name": "COSMOS 2522 (752)",
        "group": "gnss",
        "lat": 48.48112917255646,
        "lon": -15.307264912839361,
        "alt_km": 19127.29297301744,
        "timestamp": "2025-12-18T14:52:08.268292+00:00",
        "meta_object_name": "COSMOS 2522 (752)",
        "meta_object_id": "2017-055A",
        "meta_epoch": "2025-12-17T23:44:12.763104",
        "meta_mean_motion": 2.13102073,
        "meta_eccentricity": 0.00063915,
        "meta_inclination": 64.076,
        "meta_ra_of_asc_node": 198.0502,
        "meta_arg_of_pericenter": 224.057,
        "meta_mean_anomaly": 135.9735,
        "meta_ephemeris_type": 0,
        "meta_classification_type": "U",
        "meta_norad_cat_id": 42939,
        "meta_element_set_no": 999,
        "meta_rev_at_epoch": 6411,
        "meta_bstar": 0,
        "meta_mean_motion_dot": 1.1e-06,
        "meta_mean_motion_ddot": 0,
        "tle_line1": "1 42939U 17055A   25351.98903661  .00000110  00000+0  00000+0 0  9993",
        "tle_line2": "2 42939  64.0760 198.0502 0006391 224.0570 135.9735  2.13102073 64110"
      },
      "geometry": {
        "type": "Point",
        "coordinates": [
          -15.307264912839361,
          48.48112917255646
        ]
      }
    },
    {
      "type": "Feature",
      "properties": {
        "norad_id": 42965,
        "name": "QZS-4 (QZSS/PRN 195)",
        "group": "gnss",
        "lat": 39.55482241796823,
        "lon": 88.03857216691492,
        "alt_km": 38940.547131818195,
        "timestamp": "2025-12-18T14:52:08.268303+00:00",
        "meta_object_name": "QZS-4 (QZSS/PRN 195)",
        "meta_object_id": "2017-062A",
        "meta_epoch": "2025-12-17T20:46:45.234048",
        "meta_mean_motion": 1.00251746,
        "meta_eccentricity": 0.07515485,
        "meta_inclination": 40.2233,
        "meta_ra_of_asc_node": 345.8056,
        "meta_arg_of_pericenter": 271.6564,
        "meta_mean_anomaly": 276.9432,
        "meta_ephemeris_type": 0,
        "meta_classification_type": "U",
        "meta_norad_cat_id": 42965,
        "meta_element_set_no": 999,
        "meta_rev_at_epoch": 2998,
        "meta_bstar": 0,
        "meta_mean_motion_dot": -3.41e-06,
        "meta_mean_motion_ddot": 0,
        "tle_line1": "1 42965U 17062A   25351.86580132 -.00000341  00000+0  00000+0 0  9998",
        "tle_line2": "2 42965  40.2233 345.8056 0751548 271.6564 276.9432  1.00251746 29981"
      },
      "geometry": {
        "type": "Point",
        "coordinates": [
          88.03857216691492,
          39.55482241796823
        ]
      }
    },
    {
      "type": "Feature",
      "properties": {
        "norad_id": 43001,
        "name": "BEIDOU-3 M1 (C19)",
        "group": "gnss",
        "lat": -49.0407258606017,
        "lon": 19.512093434200207,
        "alt_km": 21507.536156001912,
        "timestamp": "2025-12-18T14:52:08.268317+00:00",
        "meta_object_name": "BEIDOU-3 M1 (C19)",
        "meta_object_id": "2017-069A",
        "meta_epoch": "2025-12-17T15:24:44.433216",
        "meta_mean_motion": 1.86231367,
        "meta_eccentricity": 0.00094147,
        "meta_inclination": 56.5313,
        "meta_ra_of_asc_node": 69.0717,
        "meta_arg_of_pericenter": 302.6799,
        "meta_mean_anomaly": 57.2556,
        "meta_ephemeris_type": 0,
        "meta_classification_type": "U",
        "meta_norad_cat_id": 43001,
        "meta_element_set_no": 999,
        "meta_rev_at_epoch": 5522,
        "meta_bstar": 0,
        "meta_mean_motion_dot": -7e-07,
        "meta_mean_motion_ddot": 0,
        "tle_line1": "1 43001U 17069A   25351.64218094 -.00000070  00000+0  00000+0 0  9997",
        "tle_line2": "2 43001  56.5313  69.0717 0009414 302.6799  57.2556  1.86231367 55228"
      },
      "geometry": {
        "type": "Point",
        "coordinates": [
          19.512093434200207,
          -49.0407258606017
        ]
      }
    },
    {
      "type": "Feature",
      "properties": {
        "norad_id": 43002,
        "name": "BEIDOU-3 M2 (C20)",
        "group": "gnss",
        "lat": -19.390643122125528,
        "lon": 55.64688625865125,
        "alt_km": 21512.820840672262,
        "timestamp": "2025-12-18T14:52:08.268328+00:00",
        "meta_object_name": "BEIDOU-3 M2 (C20)",
        "meta_object_id": "2017-069B",
        "meta_epoch": "2025-12-18T02:49:13.033344",
        "meta_mean_motion": 1.86230976,
        "meta_eccentricity": 0.00064664,
        "meta_inclination": 56.5314,
        "meta_ra_of_asc_node": 69.092,
        "meta_arg_of_pericenter": 330.9004,
        "meta_mean_anomaly": 29.0919,
        "meta_ephemeris_type": 0,
        "meta_classification_type": "U",
        "meta_norad_cat_id": 43002,
        "meta_element_set_no": 999,
        "meta_rev_at_epoch": 5522,
        "meta_bstar": 0,
        "meta_mean_motion_dot": -6.6e-07,
        "meta_mean_motion_ddot": 0,
        "tle_line1": "1 43002U 17069B   25352.11751196 -.00000066  00000+0  00000+0 0  9991",
        "tle_line2": "2 43002  56.5314  69.0920 0006466 330.9004  29.0919  1.86230976 55228"
      },
      "geometry": {
        "type": "Point",
        "coordinates": [
          55.64688625865125,
          -19.390643122125528
        ]
      }
    },
    {
      "type": "Feature",
      "properties": {
        "norad_id": 43055,
        "name": "GSAT0215 (GALILEO 19)",
        "group": "gnss",
        "lat": 11.16762102476556,
        "lon": 38.58145072745569,
        "alt_km": 23224.63870231289,
        "timestamp": "2025-12-18T14:52:08.268339+00:00",
        "meta_object_name": "GSAT0215 (GALILEO 19)",
        "meta_object_id": "2017-079A",
        "meta_epoch": "2025-12-17T04:12:33.509376",
        "meta_mean_motion": 1.70474116,
        "meta_eccentricity": 0.00012477,
        "meta_inclination": 55.1286,
        "meta_ra_of_asc_node": 226.5156,
        "meta_arg_of_pericenter": 341.6592,
        "meta_mean_anomaly": 18.4365,
        "meta_ephemeris_type": 0,
        "meta_classification_type": "U",
        "meta_norad_cat_id": 43055,
        "meta_element_set_no": 999,
        "meta_rev_at_epoch": 4988,
        "meta_bstar": 0,
        "meta_mean_motion_dot": 5.5e-07,
        "meta_mean_motion_ddot": 0,
        "tle_line1": "1 43055U 17079A   25351.17538784  .00000055  00000+0  00000+0 0  9998",
        "tle_line2": "2 43055  55.1286 226.5156 0001247 341.6592  18.4365  1.70474116 49884"
      },
      "geometry": {
        "type": "Point",
        "coordinates": [
          38.58145072745569,
          11.16762102476556
        ]
      }
    },
    {
      "type": "Feature",
      "properties": {
        "norad_id": 43056,
        "name": "GSAT0216 (GALILEO 20)",
        "group": "gnss",
        "lat": -10.202902971061002,
        "lon": -140.71633748797046,
        "alt_km": 23217.256378194925,
        "timestamp": "2025-12-18T14:52:08.268351+00:00",
        "meta_object_name": "GSAT0216 (GALILEO 20)",
        "meta_object_id": "2017-079B",
        "meta_epoch": "2025-12-16T21:07:19.515072",
        "meta_mean_motion": 1.70474167,
        "meta_eccentricity": 0.00024195,
        "meta_inclination": 55.129,
        "meta_ra_of_asc_node": 226.5236,
        "meta_arg_of_pericenter": 322.2527,
        "meta_mean_anomaly": 37.829,
        "meta_ephemeris_type": 0,
        "meta_classification_type": "U",
        "meta_norad_cat_id": 43056,
        "meta_element_set_no": 999,
        "meta_rev_at_epoch": 4989,
        "meta_bstar": 0,
        "meta_mean_motion_dot": 5.3e-07,
        "meta_mean_motion_ddot": 0,
        "tle_line1": "1 43056U 17079B   25350.88008698  .00000053  00000+0  00000+0 0  9990",
        "tle_line2": "2 43056  55.1290 226.5236 0002419 322.2527  37.8290  1.70474167 49893"
      },
      "geometry": {
        "type": "Point",
        "coordinates": [
          -140.71633748797046,
          -10.202902971061002
        ]
      }
    }
  ]
}